*******************************************************************************
Ephemeris / WWW_USER Fri Mar  7 11:03:48 2025 Pasadena, USA      / Horizons    
*******************************************************************************
Target body name: (2018 UM1)                      {source: JPL#32}
Center body name: Earth (399)                     {source: DE441}
Center-site name: Mauna Kea
*******************************************************************************
Start time      : A.D. 2018-Oct-10 04:12:00.0000 UT      
Stop  time      : A.D. 2018-Oct-10 16:05:00.0000 UT      
Step-size       : 1 minutes
*******************************************************************************
Target pole/equ : undefined
Target radii    : undefined                                                    
Center geodetic : 204.5278, 19.8260847, 4.21024   {E-lon(deg),Lat(deg),Alt(km)}
Center cylindric: 204.5278, 6006.35451, 2151.0229 {E-lon(deg),Dxy(km),Dz(km)}
Center pole/equ : ITRF93                          {East-longitude positive}
Center radii    : 6378.137, 6378.137, 6356.752 km {Equator_a, b, pole_c}       
Target primary  : Sun
Vis. interferer : MOON (R_eq= 1737.400) km        {source: DE441}
Rel. light bend : Sun                             {source: DE441}
Rel. lght bnd GM: 1.3271E+11 km^3/s^2                                          
Small-body perts: Yes                             {source: SB441-N16}
Atmos refraction: NO (AIRLESS)
RA format       : HMS
Time format     : CAL 
Calendar mode   : Mixed Julian/Gregorian
RTS-only print  : NO       
EOP file        : eop.250306.p250602                                           
EOP coverage    : DATA-BASED 1962-JAN-20 TO 2025-MAR-06. PREDICTS-> 2025-JUN-01
Units conversion: 1 au= 149597870.700 km, c= 299792.458 km/s, 1 day= 86400.0 s 
Table cut-offs 1: Elevation (-90.0deg=NO ),Airmass (>38.000=NO), Daylight (YES)
Table cut-offs 2: Solar elongation (  0.0,180.0=NO ),Local Hour Angle( 0.0=NO )
Table cut-offs 3: RA/DEC angular rate (     0.0=NO )                           
*******************************************************************************
Initial IAU76/J2000 heliocentric ecliptic osculating elements (au, days, deg.):
  EPOCH=  2458316.5 ! 2018-Jul-17.00 (TDB)         Residual RMS= .13282        
   EC= .1732206266096905   QR= .9442469573310488   TP= 2458347.0882341689      
   OM= 261.2771090241423   W=  53.36399135060417   IN= 1.987806152492243       
  Equivalent ICRF heliocentric cartesian coordinates (au, au/d):
   X= 1.631856825953344E-01  Y=-8.815145891163165E-01  Z=-3.705958742828900E-01
  VX= 1.811434055353769E-02 VY= 4.114587132606022E-03 VZ= 2.434006136501484E-03
Asteroid physical parameters (km, seconds, rotational period in hours):        
   GM= n.a.                RAD= n.a.               ROTPER= n.a.                
   H= 23.64                G= .150                 B-V= n.a.                   
                           ALBEDO= n.a.            STYP= n.a.                  
*******************************************************************************
 Date__(UT)__HR:MN     R.A._________(ICRF)_________DEC
******************************************************
$$SOE
 2018-Oct-10 04:12 Cm  20 38 08.074030 +24 43 32.47170
 2018-Oct-10 04:13 Cm  20 38 08.706285 +24 43 32.50246
 2018-Oct-10 04:14 Cm  20 38 09.338433 +24 43 32.53180
 2018-Oct-10 04:15 Cm  20 38 09.970474 +24 43 32.55972
 2018-Oct-10 04:16 Cm  20 38 10.602409 +24 43 32.58622
 2018-Oct-10 04:17 Cm  20 38 11.234240 +24 43 32.61129
 2018-Oct-10 04:18 Cm  20 38 11.865968 +24 43 32.63494
 2018-Oct-10 04:19 Cm  20 38 12.497592 +24 43 32.65716
 2018-Oct-10 04:20 Cm  20 38 13.129115 +24 43 32.67795
 2018-Oct-10 04:21 Cm  20 38 13.760537 +24 43 32.69730
 2018-Oct-10 04:22 Cm  20 38 14.391859 +24 43 32.71522
 2018-Oct-10 04:23 Cm  20 38 15.023082 +24 43 32.73171
 2018-Oct-10 04:24 Cm  20 38 15.654207 +24 43 32.74675
 2018-Oct-10 04:25 Cm  20 38 16.285234 +24 43 32.76035
 2018-Oct-10 04:26 Nm  20 38 16.916166 +24 43 32.77251
 2018-Oct-10 04:27 Nm  20 38 17.547003 +24 43 32.78323
 2018-Oct-10 04:28 Nm  20 38 18.177745 +24 43 32.79250
 2018-Oct-10 04:29 Nm  20 38 18.808394 +24 43 32.80032
 2018-Oct-10 04:30 Nm  20 38 19.438950 +24 43 32.80669
 2018-Oct-10 04:31 Nm  20 38 20.069415 +24 43 32.81161
 2018-Oct-10 04:32 Nm  20 38 20.699790 +24 43 32.81507
 2018-Oct-10 04:33 Nm  20 38 21.330076 +24 43 32.81708
 2018-Oct-10 04:34 Nm  20 38 21.960272 +24 43 32.81762
 2018-Oct-10 04:35 Nm  20 38 22.590382 +24 43 32.81671
 2018-Oct-10 04:36 Nm  20 38 23.220404 +24 43 32.81434
 2018-Oct-10 04:37 Nm  20 38 23.850341 +24 43 32.81051
 2018-Oct-10 04:38 Nm  20 38 24.480193 +24 43 32.80521
 2018-Oct-10 04:39 Nm  20 38 25.109962 +24 43 32.79844
 2018-Oct-10 04:40 Nm  20 38 25.739648 +24 43 32.79021
 2018-Oct-10 04:41 Nm  20 38 26.369252 +24 43 32.78050
 2018-Oct-10 04:42 Nm  20 38 26.998775 +24 43 32.76933
 2018-Oct-10 04:43 Nm  20 38 27.628219 +24 43 32.75668
 2018-Oct-10 04:44 Nm  20 38 28.257583 +24 43 32.74256
 2018-Oct-10 04:45 Nm  20 38 28.886870 +24 43 32.72696
 2018-Oct-10 04:46 Nm  20 38 29.516080 +24 43 32.70988
 2018-Oct-10 04:47 Nm  20 38 30.145214 +24 43 32.69133
 2018-Oct-10 04:48 Nm  20 38 30.774272 +24 43 32.67129
 2018-Oct-10 04:49 Nm  20 38 31.403257 +24 43 32.64978
 2018-Oct-10 04:50 Nm  20 38 32.032169 +24 43 32.62678
 2018-Oct-10 04:51 Am  20 38 32.661009 +24 43 32.60229
 2018-Oct-10 04:52 Am  20 38 33.289778 +24 43 32.57633
 2018-Oct-10 04:53 Am  20 38 33.918477 +24 43 32.54887
 2018-Oct-10 04:54 Am  20 38 34.547106 +24 43 32.51992
 2018-Oct-10 04:55 Am  20 38 35.175668 +24 43 32.48949
 2018-Oct-10 04:56 Am  20 38 35.804162 +24 43 32.45756
 2018-Oct-10 04:57 Am  20 38 36.432590 +24 43 32.42415
 2018-Oct-10 04:58 Am  20 38 37.060953 +24 43 32.38924
 2018-Oct-10 04:59 Am  20 38 37.689252 +24 43 32.35283
 2018-Oct-10 05:00 Am  20 38 38.317488 +24 43 32.31493
 2018-Oct-10 05:01 Am  20 38 38.945662 +24 43 32.27553
 2018-Oct-10 05:02 Am  20 38 39.573774 +24 43 32.23464
 2018-Oct-10 05:03 Am  20 38 40.201826 +24 43 32.19224
 2018-Oct-10 05:04 Am  20 38 40.829819 +24 43 32.14835
 2018-Oct-10 05:05 Am  20 38 41.457754 +24 43 32.10295
 2018-Oct-10 05:06 A   20 38 42.085631 +24 43 32.05605
 2018-Oct-10 05:07 A   20 38 42.713452 +24 43 32.00765
 2018-Oct-10 05:08 A   20 38 43.341218 +24 43 31.95775
 2018-Oct-10 05:09 A   20 38 43.968930 +24 43 31.90634
 2018-Oct-10 05:10 A   20 38 44.596588 +24 43 31.85342
 2018-Oct-10 05:11 A   20 38 45.224194 +24 43 31.79900
 2018-Oct-10 05:12 A   20 38 45.851749 +24 43 31.74307
 2018-Oct-10 05:13 A   20 38 46.479254 +24 43 31.68563
 2018-Oct-10 05:14 A   20 38 47.106709 +24 43 31.62669
 2018-Oct-10 05:15 A   20 38 47.734116 +24 43 31.56623
 2018-Oct-10 05:16 A   20 38 48.361476 +24 43 31.50426
 2018-Oct-10 05:17     20 38 48.988789 +24 43 31.44079
 2018-Oct-10 05:18     20 38 49.616058 +24 43 31.37580
 2018-Oct-10 05:19     20 38 50.243281 +24 43 31.30929
 2018-Oct-10 05:20     20 38 50.870462 +24 43 31.24127
 2018-Oct-10 05:21     20 38 51.497600 +24 43 31.17174
 2018-Oct-10 05:22     20 38 52.124697 +24 43 31.10070
 2018-Oct-10 05:23     20 38 52.751754 +24 43 31.02814
 2018-Oct-10 05:24     20 38 53.378772 +24 43 30.95406
 2018-Oct-10 05:25     20 38 54.005751 +24 43 30.87847
 2018-Oct-10 05:26     20 38 54.632693 +24 43 30.80136
 2018-Oct-10 05:27     20 38 55.259599 +24 43 30.72273
 2018-Oct-10 05:28     20 38 55.886469 +24 43 30.64259
 2018-Oct-10 05:29     20 38 56.513305 +24 43 30.56092
 2018-Oct-10 05:30     20 38 57.140108 +24 43 30.47774
 2018-Oct-10 05:31     20 38 57.766879 +24 43 30.39304
 2018-Oct-10 05:32     20 38 58.393618 +24 43 30.30682
 2018-Oct-10 05:33     20 38 59.020327 +24 43 30.21909
 2018-Oct-10 05:34     20 38 59.647007 +24 43 30.12983
 2018-Oct-10 05:35     20 39 00.273659 +24 43 30.03905
 2018-Oct-10 05:36     20 39 00.900284 +24 43 29.94675
 2018-Oct-10 05:37     20 39 01.526882 +24 43 29.85293
 2018-Oct-10 05:38     20 39 02.153455 +24 43 29.75759
 2018-Oct-10 05:39     20 39 02.780004 +24 43 29.66072
 2018-Oct-10 05:40     20 39 03.406530 +24 43 29.56234
 2018-Oct-10 05:41     20 39 04.033033 +24 43 29.46244
 2018-Oct-10 05:42     20 39 04.659516 +24 43 29.36101
 2018-Oct-10 05:43     20 39 05.285978 +24 43 29.25806
 2018-Oct-10 05:44     20 39 05.912421 +24 43 29.15359
 2018-Oct-10 05:45     20 39 06.538846 +24 43 29.04760
 2018-Oct-10 05:46     20 39 07.165253 +24 43 28.94009
 2018-Oct-10 05:47  t  20 39 07.791645 +24 43 28.83106
 2018-Oct-10 05:48     20 39 08.418021 +24 43 28.72050
 2018-Oct-10 05:49     20 39 09.044383 +24 43 28.60843
 2018-Oct-10 05:50     20 39 09.670733 +24 43 28.49483
 2018-Oct-10 05:51     20 39 10.297070 +24 43 28.37971
 2018-Oct-10 05:52     20 39 10.923396 +24 43 28.26307
 2018-Oct-10 05:53     20 39 11.549711 +24 43 28.14491
 2018-Oct-10 05:54     20 39 12.176018 +24 43 28.02522
 2018-Oct-10 05:55     20 39 12.802317 +24 43 27.90402
 2018-Oct-10 05:56     20 39 13.428608 +24 43 27.78130
 2018-Oct-10 05:57     20 39 14.054894 +24 43 27.65706
 2018-Oct-10 05:58     20 39 14.681174 +24 43 27.53130
 2018-Oct-10 05:59     20 39 15.307450 +24 43 27.40401
 2018-Oct-10 06:00     20 39 15.933724 +24 43 27.27521
 2018-Oct-10 06:01     20 39 16.559995 +24 43 27.14490
 2018-Oct-10 06:02     20 39 17.186265 +24 43 27.01306
 2018-Oct-10 06:03     20 39 17.812535 +24 43 26.87970
 2018-Oct-10 06:04     20 39 18.438806 +24 43 26.74483
 2018-Oct-10 06:05     20 39 19.065079 +24 43 26.60844
 2018-Oct-10 06:06     20 39 19.691355 +24 43 26.47054
 2018-Oct-10 06:07     20 39 20.317635 +24 43 26.33112
 2018-Oct-10 06:08     20 39 20.943919 +24 43 26.19018
 2018-Oct-10 06:09     20 39 21.570210 +24 43 26.04773
 2018-Oct-10 06:10     20 39 22.196508 +24 43 25.90377
 2018-Oct-10 06:11     20 39 22.822814 +24 43 25.75829
 2018-Oct-10 06:12     20 39 23.449128 +24 43 25.61130
 2018-Oct-10 06:13     20 39 24.075453 +24 43 25.46279
 2018-Oct-10 06:14     20 39 24.701789 +24 43 25.31278
